[{"OBJECT_NAME":"STARLINK-31085","OBJECT_ID":"2023-200W","EPOCH":"2026-03-09T22:00:01.999584","MEAN_MOTION":15.26753513,"ECCENTRICITY":0.00010517,"INCLINATION":42.9993,"RA_OF_ASC_NODE":167.5665,"ARG_OF_PERICENTER":272.2063,"MEAN_ANOMALY":154.8258,"EPHEMERIS_TYPE":0,"CLASSIFICATION_TYPE":"U","NORAD_CAT_ID":58609,"ELEMENT_SET_NO":999,"REV_AT_EPOCH":577,"BSTAR":-0.00025109095,"MEAN_MOTION_DOT":-6.991e-5,"MEAN_MOTION_DDOT":0},{"OBJECT_NAME":"SL-19 R\/B","OBJECT_ID":"2006-031B","EPOCH":"2026-03-09T21:44:36.709152","MEAN_MOTION":15.04470441,"ECCENTRICITY":0.01076308,"INCLINATION":98.2744,"RA_OF_ASC_NODE":54.8592,"ARG_OF_PERICENTER":119.9659,"MEAN_ANOMALY":241.2302,"EPHEMERIS_TYPE":0,"CLASSIFICATION_TYPE":"U","NORAD_CAT_ID":29269,"ELEMENT_SET_NO":999,"REV_AT_EPOCH":6907,"BSTAR":0.00022954365,"MEAN_MOTION_DOT":3.574e-5,"MEAN_MOTION_DDOT":0}]
